
STARLINK-2555           
1 48291U 21036R   25023.67784099  .00024954  00000+0  16890-2 0  9997
2 48291  53.0532 122.2337 0001383  94.8135 265.3012 15.06382815206511
STARLINK-2542           
1 48292U 21036S   25023.68893586  .00000803  00000+0  72818-4 0  9992
2 48292  53.0567 122.3439 0001329  99.6674 260.4465 15.06389461206517
STARLINK-2550           
1 48293U 21036T   25023.67046410  .00028445  00000+0  19214-2 0  9999
2 48293  53.0539 122.2676 0002171  35.0636 325.0495 15.06387799206510
STARLINK-2533           
1 48294U 21036U   25023.66676866  .00018830  00000+0  12788-2 0  9999
2 48294  53.0533 122.2817 0001871  81.1596 278.9605 15.06423974206510
STARLINK-2535           
1 48295U 21036V   25023.66310386  .00026354  00000+0  17829-2 0  9993
2 48295  53.0535 122.2971 0001592  89.5403 270.5769 15.06371366206519
STARLINK-2559           
1 48298U 21036Y   25023.58569720  .00007145  00000+0  49821-3 0  9990
2 48298  53.0537 122.6462 0001489  92.2715 267.8444 15.06389926206504
STARLINK-2557           
1 48299U 21036Z   25023.58200310  .00022913  00000+0  15532-2 0  9999
2 48299  53.0533 122.6633 0001391  84.6702 275.4445 15.06374626206501
STARLINK-2538           
1 48300U 21036AA  25023.57370891 -.00002943  00000+0 -17876-3 0  9990
2 48300  53.0547 132.6986 0001838 122.5360 237.5807 15.06391545206363
STARLINK-2537           
1 48301U 21036AB  25023.70271661  .00017792  00000+0  12105-2 0  9996
2 48301  53.0545 132.1168 0001157  91.6520 268.4601 15.06395074206374
STARLINK-2530           
1 48303U 21036AD  25023.68066833  .00021700  00000+0  14720-2 0  9997
2 48303  53.0533 132.7594 0001529  74.1198 285.9960 15.06379735206369
STARLINK-2524           
1 48304U 21036AE  25023.69166634  .00003626  00000+0  26229-3 0  9994
2 48304  53.0546 132.1646 0001822  95.5655 264.5542 15.06389882206371
STARLINK-2519           
1 48305U 21036AF  25023.67699469  .00004319  00000+0  30876-3 0  9993
2 48305  53.0542 132.8138 0001638  87.6664 272.4512 15.06391824206361
STARLINK-2523           
1 48306U 21036AG  25023.61794482  .00018162  00000+0  12355-2 0  9991
2 48306  53.0536 132.4995 0001213  80.3669 279.7457 15.06386727206360
STARLINK-2517           
1 48309U 21036AK  25023.67323231  .00008149  00000+0  56547-3 0  9996
2 48309  53.0539 132.2522 0001483  90.8421 269.2737 15.06391343206377
STARLINK-2536           
1 48310U 21036AL  25023.73589582  .00016461  00000+0  11220-2 0  9992
2 48310  53.0542 131.9732 0001530  85.2931 274.8233 15.06379470206380
STARLINK-2534           
1 48311U 21036AM  25023.73221814 -.00000587  00000+0 -20504-4 0  9995
2 48311  53.0561 131.9883 0001405  94.6896 265.4254 15.06387239206385
STARLINK-2061           
1 48312U 21036AN  25023.72851893  .00022044  00000+0  14950-2 0  9997
2 48312  53.0539 132.0037 0001445  81.8152 278.3000 15.06379825206385
STARLINK-2549           
1 48314U 21036AQ  25023.72114784  .00002226  00000+0  16825-3 0  9994
2 48314  53.0531 132.0390 0001181  58.8694 301.2410 15.06401706206377
STARLINK-2506           
1 48315U 21036AR  25023.71745984  .00001044  00000+0  88985-4 0  9990
2 48315  53.0552 132.0515 0001513  84.5028 275.6134 15.06395448206378
STARLINK-2507           
1 48316U 21036AS  25023.58108470 -.00002410  00000+0 -14301-3 0  9999
2 48316  53.0549 132.6613 0001482 101.7261 258.3894 15.06377142206356
STARLINK-2513           
1 48317U 21036AT  25023.71009107  .00018513  00000+0  12589-2 0  9996
2 48317  53.0536 132.0864 0001319  58.8372 301.2746 15.06387059206373
STARLINK-2509           
1 48318U 21036AU  25023.70179692  .00003117  00000+0  22810-3 0  9996
2 48318  53.0537 142.1245 0001465  77.2921 282.8231 15.06390053206233
STARLINK-2512           
1 48319U 21036AV  25023.69716749  .00018751  00000+0  12750-2 0  9996
2 48319  53.0537 142.1361 0001454  86.7405 273.3750 15.06381479206236
STARLINK-2029           
1 48320U 21036AW  25023.62808441  .00001382  00000+0  11170-3 0  9990
2 48320  53.0547 142.4570 0001532  92.3501 267.7664 15.06389022206223
STARLINK-2457           
1 48321U 21036AX  25023.62439044 -.00001509  00000+0 -82475-4 0  9990
2 48321  53.0545 142.4751 0001606  91.8568 268.2605 15.06385931206228
STARLINK-2515           
1 48323U 21036AZ  25023.55066200  .00021645  00000+0  14673-2 0  9998
2 48323  53.0545 142.8022 0001069 104.6322 255.4785 15.06406078206211
STARLINK-2495           
1 48325U 21036BB  25023.74234557  .00005706  00000+0  40179-3 0  9994
2 48325  53.0538 141.9409 0001321  97.6499 262.4640 15.06386789206248
STARLINK-2498           
1 48326U 21036BC  25023.73865314  .00009561  00000+0  65988-3 0  9993
2 48326  53.0539 141.9583 0001329  75.2800 284.8336 15.06399491206243
STARLINK-2502           
1 48327U 21036BD  25023.73496351  .00026508  00000+0  17913-2 0  9999
2 48327  53.0532 141.9742 0001645  98.8034 261.3141 15.06410192206241
STARLINK-2504           
1 48328U 21036BE  25023.59858862 -.00001814  00000+0 -10291-3 0  9991
2 48328  53.0550 142.5868 0001530 103.6823 256.4336 15.06395452206222
STARLINK-2510           
1 48329U 21036BF  25023.59490094  .00018566  00000+0  12621-2 0  9999
2 48329  53.0534 142.6030 0001345 111.0872 249.0261 15.06397105206815
STARLINK-2501           
1 48330U 21036BG  25023.59122660 -.00005662  00000+0 -36167-3 0  9999
2 48330  53.0550 142.6156 0001743 102.9964 257.1220 15.06382515206226
STARLINK-2514           
1 48331U 21036BH  25023.72021606  .00000196  00000+0  32057-4 0  9993
2 48331  53.0536 142.0374 0001638  84.4095 275.7081 15.06410345206245
STARLINK-2511           
1 48332U 21036BJ  25023.58658687 -.00000704  00000+0 -28341-4 0  9991
2 48332  53.0542 142.6384 0001512  89.0759 271.0404 15.06393170206221
STARLINK-2518           
1 48333U 21036BK  25023.64651664  .00009898  00000+0  68241-3 0  9990
2 48333  53.0528 142.3724 0001238  87.5819 272.5311 15.06401114206238
STARLINK-2470           
1 48334U 21036BL  25023.70917051  .00019347  00000+0  13146-2 0  9996
2 48334  53.0529 142.0918 0001664  85.3568 274.7611 15.06387795206248
YAOGAN-34 01            
1 48340U 21037A   25023.91746851 -.00000019  00000+0  11784-3 0  9999
2 48340  63.4047  14.4673 0082010 357.3804   2.6781 13.45389573183577
STARLINK-2613           
1 48353U 21038A   25023.44563867  .00001800  00000+0  13969-3 0  9991
2 48353  53.0559  43.2725 0001007  87.6685 272.4419 15.06398128205192
STARLINK-2674           
1 48354U 21038B   25023.30925859  .00014582  00000+0  99578-3 0  9991
2 48354  53.0540  43.8867 0002196  91.7691 268.3550 15.06399552205179
STARLINK-2635           
1 48355U 21038C   25023.30556643  .00001157  00000+0  96581-4 0  9999
2 48355  53.0542  43.9057 0001591  71.6927 288.4235 15.06393768205177
STARLINK-2637           
1 48356U 21038D   25022.50571495  .00009925  00000+0  68392-3 0  9992
2 48356  53.0551  47.4936 0001624  91.0451 269.0724 15.06416777205059
STARLINK-2636           
1 48357U 21038E   25023.47148267  .00009722  00000+0  67043-3 0  9994
2 48357  53.0578  43.5846 0001388 332.5449  27.5466 15.06412294205198
STARLINK-2624           
1 48358U 21038F   25023.49354988  .00004973  00000+0  35249-3 0  9992
2 48358  53.0555  43.0614 0001657 106.1484 253.9687 15.06404792205199
STARLINK-2628           
1 48359U 21038G   25023.55620285  .00005043  00000+0  35706-3 0  9993
2 48359  53.0557  42.7748 0001419 100.1257 259.9893 15.06417194206448
STARLINK-2622           
1 48360U 21038H   25021.49577860  .00000631  00000+0  61275-4 0  9995
2 48360  53.0559  52.0208 0002015 113.2864 246.8337 15.06394640204894
STARLINK-2591           
1 48361U 21038J   25023.08440615  .00008490  00000+0  58794-3 0  9992
2 48361  53.0548  44.8935 0001449  98.4864 261.6289 15.06414532205135
STARLINK-2578           
1 48362U 21038K   25023.31663783  .00012142  00000+0  83250-3 0  9996
2 48362  53.0551  43.9389 0002593  90.1811 269.9475 15.06404253205176
STARLINK-2626           
1 48363U 21038L   25022.44763265  .00041828  00000+0  19871-2 0  9996
2 48363  53.0524  34.8754 0002310  70.2738 289.8506 15.18840174205812
STARLINK-2611           
1 48364U 21038M   25023.33738334  .00014108  00000+0  96486-3 0  9994
2 48364  53.0535  38.9214 0000469 313.8685  46.2265 15.06371699205243
STARLINK-2608           
1 48365U 21038N   25023.30050014  .00006967  00000+0  48615-3 0  9999
2 48365  53.0548  38.9278 0003192  91.5049 268.6305 15.06402821205245
STARLINK-2631           
1 48366U 21038P   25023.28806374  .00013693  00000+0  93601-3 0  9994
2 48366  53.0543  33.9807 0001434  84.3770 275.7382 15.06415103205300
STARLINK-2643           
1 48367U 21038Q   25023.28437325  .00008803  00000+0  60917-3 0  9992
2 48367  53.0556  33.9967 0001900  91.3728 268.7479 15.06396285205309
STARLINK-2623           
1 48368U 21038R   25023.52767798  .00005467  00000+0  38567-3 0  9999
2 48368  53.0552  33.1855 0001710  92.2220 267.8964 15.06397650205340
STARLINK-2641           
1 48369U 21038S   25022.41817494  .00000391  00000+0  45167-4 0  9992
2 48369  53.0549  37.8846 0001239 108.5649 251.5475 15.06385303205170
STARLINK-2621           
1 48370U 21038T   25022.41448753  .00004423  00000+0  31568-3 0  9991
2 48370  53.0553  37.9043 0001368  91.6803 268.4343 15.06394970205175
STARLINK-2589           
1 48371U 21038U   25022.07905784 -.00000840  00000+0 -37479-4 0  9995
2 48371  53.0545  39.4072 0001486  73.6348 286.4804 15.06400639205128
STARLINK-2609           
1 48373U 21038W   25022.46977700 -.00001303  00000+0 -68589-4 0  9998
2 48373  53.0553  37.6521 0001801  85.1970 274.9225 15.06393094205189
STARLINK-2604           
1 48374U 21038X   25023.29547511  .00014228  00000+0  97202-3 0  9995
2 48374  53.0558  34.2945 0001256  84.8690 275.2442 15.06405077205301
